IRIDIUM 7               
1 24793U 97020B   24318.41050467  .00001370  00000+0  46891-3 0  9999
2 24793  86.3934 267.2874 0002615  88.1083 272.0413 14.35596558440938
IRIDIUM 5               
1 24795U 97020D   24318.59540223  .00006636  00000+0  58927-3 0  9997
2 24795  86.3952 182.8273 0114814 189.3635 170.5455 14.90968213453302
IRIDIUM 4               
1 24796U 97020E   24318.60000098  .00001292  00000+0  43371-3 0  9991
2 24796  86.3934 264.2241 0002355  88.9068 271.2399 14.36511934441513
IRIDIUM 914             
1 24836U 97030A   24318.36634321  .00001727  00000+0  53770-3 0  9999
2 24836  86.3904 273.5793 0001957 130.9690 229.1679 14.40450421576055
IRIDIUM 16              
1 24841U 97030F   24318.49142919  .00001530  00000+0  49650-3 0  9990
2 24841  86.3988 295.9110 0004346  71.9172 288.2499 14.38319075435997
IRIDIUM 911             
1 24842U 97030G   24318.48953580  .00001783  00000+0  48339-3 0  9997
2 24842  86.4411 294.9005 0016706  95.9418 264.3690 14.47093930443888
IRIDIUM 17              
1 24870U 97034B   24318.55400580  .00001302  00000+0  42915-3 0  9998
2 24870  86.3937 325.4625 0002811  54.7815 305.3646 14.37422672432608
IRIDIUM 920             
1 24871U 97034C   24318.52589190  .00001433  00000+0  43853-3 0  9998
2 24871  86.3932 305.1901 0013822  76.3228 283.9509 14.41122724435510
